#cP2007 11 26  0  0  0.00000000      96 ORBIT IGS05 HLM  IGS
## 1455  86400.00000000   900.00000000 54430 0.0000000000000
+   31   G01G02G03G04G05G06G07G08G09G10G11G12G13G14G15G16G17
+        G18G19G20G21G22G23G24G25G26G27G28G30G31G32  0  0  0
+          0  0  0  0  0  0  0  0  0  0  0  0  0  0  0  0  0
+          0  0  0  0  0  0  0  0  0  0  0  0  0  0  0  0  0
+          0  0  0  0  0  0  0  0  0  0  0  0  0  0  0  0  0
++         2  3  2  3  2  2  2  3  3  2  3  2  3  3  3  3  3
++         3  3  3  2  3  3  3  3  3  3  3  2  3  3  0  0  0
++         0  0  0  0  0  0  0  0  0  0  0  0  0  0  0  0  0
++         0  0  0  0  0  0  0  0  0  0  0  0  0  0  0  0  0
++         0  0  0  0  0  0  0  0  0  0  0  0  0  0  0  0  0
%c G  cc GPS ccc cccc cccc cccc cccc ccccc ccccc ccccc ccccc
%c cc cc ccc ccc cccc cccc cccc cccc ccccc ccccc ccccc ccccc
%f  1.2500000  1.025000000  0.00000000000  0.000000000000000
%f  0.0000000  0.000000000  0.00000000000  0.000000000000000
%i    0    0    0    0      0      0      0      0         0
%i    0    0    0    0      0      0      0      0         0
/* FINAL ORBIT COMBINATION FROM WEIGHTED AVERAGE OF:        
/* cod emr esa gfz jpl mit ngs sio                          
/* REFERENCED TO IGS TIME (IGST) AND TO WEIGHTED MEAN POLE: 
/* PCV:IGS05_1455 OL/AL:FES2004  NONE     Y  ORB:CMB CLK:CMB
*  2007 11 26 17 15  0.00000000
PG01  19628.072048  17902.118211   1613.386140    168.918699  7  6  8 160       
PG02 -13443.303468 -11180.333712 -20263.004662    153.986346  5 10  5 165       
PG03  24223.968708   9676.115874   5651.480092    149.804053  6  8  8 125       
PG04  -7162.140719 -21414.956013 -13767.912720    -29.270880  8  3  9 187       
PG05 -19353.681214  16558.472813  -7529.213019    563.163225  5  8  7 147       
PG06  -5026.964716  15359.314081 -20894.006141    207.239536  7  7  6 161       
PG07  -1479.549780  16837.143896 -20150.009142    -23.106132  6  5  6 145       
PG08   -288.187067 -25364.138066   6908.157234   -131.145728  8  7  6 164       
PG09 -13596.968243  12895.687612  18137.230267     98.428657  8  7  9 160       
PG10 -22985.700640  -1060.014077 -13667.661606   -155.245522  6  5  5 135       
PG11  12944.989780 -15317.395106  17135.941832     26.221393  8  8  7 182       
PG12 -23486.381142  12006.349616  -2691.886572   -349.556098  8 10  9 135       
PG13   3461.773533 -15268.450141 -21562.832206    223.838672  5  9  8 184       
PG14  12733.602922  20139.380144  11936.669790   -317.316006  5  9  9 162       
PG15 -21215.337811  -1746.909500  15895.457022    -76.546163  6  9  5 166       
PG16  19777.572937   4773.868494 -17092.960291    126.566460  7  9  8 177       
PG17 -11865.093179 -20250.527954  12589.302366     48.045162  7 11  7 178       
PG18  -9980.250300  17223.412980  17579.638127   -223.120652  7  9 10 173       
PG19  20976.525143   3070.686397  16179.466184      9.030731  7  8  7 143       
PG20  21816.842242 -14058.642951  -5640.787888    125.559401  4  8  5 154       
PG21  -5917.059708  25394.324613  -2780.087070     76.073544  6  5  7 181       
PG22   4677.767459  14861.509270  21672.071858    203.897985  6  8  8 173       
PG23  15037.543152  -6610.904495 -20983.534140    312.765739  5  8  6 142       
PG24 -12672.366347  19525.671378 -12870.376316     49.108116  7 10 10 193       
PG25   6927.881671 -23953.595369  -9001.940342    484.304098  6 10  8 165       
PG26 -21863.195259  -6414.146898  13646.591925    107.465892  6  8  8 167       
PG27   3091.868544 -26116.579213  -2152.295001    150.316104  7  9  8 186       
PG28  -1621.563843 -15631.272218  21724.420243    -10.997381  7  8  8 160       
PG30 -15095.895375  17602.199660 -13192.749050     53.915245  6  8  7 164       
PG31   8412.621180  19712.347044 -15432.581472      0.874195  5  6  7 161       
PG32  14444.629316   9896.782680  20391.522508 999999.999999
*  2007 11 26 17 30  0.00000000
PG01  19275.122508  17827.947767   4495.662832    168.920879  7  6  8 170       
PG02 -13156.423172 -13376.465481 -19103.766778    153.988637  4 10  6 163       
PG03  24515.740784  10210.980456   2945.042475    149.810644  6  8  8 116       
PG04  -6751.686514 -22828.932768 -11467.711515    -29.275180  8  5  9 192       
PG05 -20096.827898  16634.524329  -4824.879898    563.183375  4  8  7 155       
PG06  -7110.896822  14057.845837 -21202.312309    207.230260  7  7  6 144       
PG07  -3590.605877  15645.955945 -20824.985500    -23.105559  6  5  6 142       
PG08     25.961214 -25973.419577   4077.316181   -131.147334  8  7  6 175       
PG09 -13612.230555  10615.434236  19521.759540     98.429252  9  7  9 154       
PG10 -21530.746418  -1859.969913 -15776.523857   -155.256375  5  5  5 120       
PG11  13373.219320 -13249.699916  18496.338040     26.221772  8  9  6 181       
PG12 -23734.197603  11839.014689    166.476377   -349.557295  8 10  8 117       
PG13   5438.917548 -13788.033878 -22144.904336    223.841173  5  9  8 180       
PG14  11467.966958  19365.243867  14280.876945   -317.313617  5  9 10 168       
PG15 -22503.669766  -2869.216439  13819.615091    -76.542159  6  9  5 147       
PG16  17953.696359   5729.792369 -18713.204407    126.567818  7  9  8 165       
PG17 -10485.723732 -19497.623537  14797.681576     48.044246  7 10  7 173       
PG18 -11803.818866  17772.833909  15762.421969   -223.118573  7  9 10 177       
PG19  22198.731704   4289.698754  14145.749824      9.032731  7  9  7 162       
PG20  22368.693249 -14010.686122  -2859.821818    125.558495  4  8  5 144       
PG21  -6216.195486  24851.217775  -5569.012041     76.072688  6  4  7 175       
PG22   2414.121126  15758.161368  21401.729641    203.899110  7  9  8 181       
PG23  16892.565653  -5213.984741 -19957.421240    312.768669  5  7  7 135       
PG24 -12639.009604  17898.819883 -15028.139733     49.110304  7 10 10 193       
PG25   7153.267924 -22737.424120 -11512.233364    484.308260  6 10  8 175       
PG26 -22961.506446  -7395.871439  11262.617183    107.476590  6  7  7 158       
PG27   3334.452902 -25624.795804  -4993.643092    150.319371  7  9  8 189       
PG28    588.516062 -16517.452334  21070.754995    -10.997656  7  8  8 158       
PG30 -16394.831819  17993.739721 -10836.376868     53.914949  6  8  7 164       
PG31   8078.854907  21366.520469 -13281.292912      0.872954  5  7  7 140       
PG32  12315.404278  10756.239074  21365.966467 999999.999999
*  2007 11 26 17 45  0.00000000
PG01  18655.289752  17589.868669   7301.256492    168.921167  7  6  8 174       
PG02 -12984.556979 -15435.371179 -17623.668776    153.991267  4 10  6 173       
PG03  24558.410182  10594.978245    188.792131    149.816540  7  8  8 124       
PG04  -6421.413308 -23990.342258  -8967.118798    -29.279577  7  6  9 191       
PG05 -20577.848469  16574.993172  -2037.247343    563.203552  4  8  7 155       
PG06  -9265.853698  12849.243754 -21139.742002    207.221053  7  7  6 147       
PG07  -5805.079901  14528.567832 -21130.661152    -23.104736  6  6  6 141       
PG08    280.203663 -26270.375351   1174.123314   -131.149271  8  8  7 179       
PG09 -13746.586894   8197.091401  20550.674917     98.430159  9  7  9 152       
PG10 -19922.397591  -2837.905145 -17619.808191   -155.267118  5  5  5 118       
PG11  13903.344325 -11069.304380  19532.329562     26.222028  8 10  7 180       
PG12 -23704.592616  11532.087519   3021.974265   -349.558250  7 10  8 120       
PG13   7535.240405 -12399.451407 -22349.667526    223.843649  5  8  8 173       
PG14   9950.192078  18527.208665  16381.917668   -317.311249  6  9 10 169       
PG15 -23635.841541  -3795.356770  11506.038744    -76.537533  6  9  5 167       
PG16  16034.634267   6857.613696 -20011.362774    126.569361  7  9  8 140       
PG17  -8869.752927 -18692.085465  16753.346765     48.043836  7 10  7 171       
PG18 -13402.164504  18316.230495  13672.941464   -223.116536  6 10  9 175       
PG19  23285.308955   5302.416988  11871.574934      9.034618  8  9  7 167       
PG20  22645.450600 -13835.717538    -29.582786    125.557521  3  7  5 148       
PG21  -6521.698207  24009.424635  -8258.255636     76.072361  6  4  7 175       
PG22    243.741285  16746.385116  20768.335583    203.900381  7  9  8 183       
PG23  18704.684169  -3991.698421 -18591.784350    312.771531  5  7  7 139       
PG24 -12671.512004  16040.871897 -16927.538232     49.112760  7  9 10 190       
PG25   7462.029451 -21258.421777 -13822.354741    484.312285  7 10  8 173       
PG26 -23879.838399  -8150.371042   8686.118172    107.486962  6  6  7 152       
PG27   3617.241900 -24823.988854  -7746.604112    150.321502  6  9  8 194       
PG28   2669.755901 -17479.082806  20063.349084    -10.998445  7  8  7 166       
PG30 -17437.981014  18309.537328  -8295.312112     53.915472  5  8  7 164       
PG31   7839.837024  22776.363957 -10897.861345      0.871652  4  8  7 115       
PG32  10157.815372  11765.437461  21986.685886 999999.999999
EOF
